$$SOE
2460728.500000000, A.D. 2025-Feb-22 00:00:00.0000, -8.787217480740149E+07, 3.943765545936497E+08, 9.835184311227918E+06,
2460735.500000000, A.D. 2025-Mar-01 00:00:00.0000, -9.857916857296814E+07, 3.915121994006535E+08, 9.248761435208052E+06,
2460742.500000000, A.D. 2025-Mar-08 00:00:00.0000, -1.092133767005027E+08, 3.883594366674018E+08, 8.655512516897917E+06,
2460749.500000000, A.D. 2025-Mar-15 00:00:00.0000, -1.197667673744268E+08, 3.849199015253237E+08, 8.055860063688517E+06,
2460756.500000000, A.D. 2025-Mar-22 00:00:00.0000, -1.302313367920619E+08, 3.811954690581455E+08, 7.450233921159029E+06,
2460763.500000000, A.D. 2025-Mar-29 00:00:00.0000, -1.405991177569405E+08, 3.771882528247253E+08, 6.839070868616849E+06,
2460770.500000000, A.D. 2025-Apr-05 00:00:00.0000, -1.508621866548073E+08, 3.729006039774539E+08, 6.222814119208008E+06,
2460777.500000000, A.D. 2025-Apr-12 00:00:00.0000, -1.610126707255988E+08, 3.683351110765573E+08, 5.601912909415215E+06,
2460784.500000000, A.D. 2025-Apr-19 00:00:00.0000, -1.710427558045521E+08, 3.634945997121642E+08, 4.976822123053059E+06,
2460791.500000000, A.D. 2025-Apr-26 00:00:00.0000, -1.809446942476018E+08, 3.583821317247514E+08, 4.348001908426836E+06,
2460798.500000000, A.D. 2025-May-03 00:00:00.0000, -1.907108129140761E+08, 3.530010040383514E+08, 3.715917280046970E+06,
2460805.500000000, A.D. 2025-May-10 00:00:00.0000, -2.003335211642544E+08, 3.473547471114826E+08, 3.081037703300014E+06,
2460812.500000000, A.D. 2025-May-17 00:00:00.0000, -2.098053188206613E+08, 3.414471229618194E+08, 2.443836655758962E+06,
2460819.500000000, A.D. 2025-May-24 00:00:00.0000, -2.191188039043245E+08, 3.352821227077851E+08, 1.804791145232826E+06,
2460826.500000000, A.D. 2025-May-31 00:00:00.0000, -2.282666797132120E+08, 3.288639639362162E+08, 1.164381172259122E+06,
2460833.500000000, A.D. 2025-Jun-07 00:00:00.0000, -2.372417616295432E+08, 3.221970891003528E+08, 5.230892728970349E+05,
2460840.500000000, A.D. 2025-Jun-14 00:00:00.0000, -2.460369860064179E+08, 3.152861642839670E+08, -1.185996953679025E+05,
2460847.500000000, A.D. 2025-Jun-21 00:00:00.0000, -2.546454198985042E+08, 3.081360750623804E+08, -7.601989028796703E+05,
2460854.500000000, A.D. 2025-Jun-28 00:00:00.0000, -2.630602684904075E+08, 3.007519212222241E+08, -1.401220173612937E+06,
2460861.500000000, A.D. 2025-Jul-05 00:00:00.0000, -2.712748817272040E+08, 2.931390124985365E+08, -2.041174571320519E+06,
2460868.500000000, A.D. 2025-Jul-12 00:00:00.0000, -2.792827613238166E+08, 2.853028645306726E+08, -2.679572902067631E+06,
2460875.500000000, A.D. 2025-Jul-19 00:00:00.0000, -2.870775679468542E+08, 2.772491944671403E+08, -3.315926196636066E+06,
2460882.500000000, A.D. 2025-Jul-26 00:00:00.0000, -2.946531283428712E+08, 2.689839161676204E+08, -3.949746195620283E+06,
2460889.500000000, A.D. 2025-Aug-02 00:00:00.0000, -3.020034423323570E+08, 2.605131350297980E+08, -4.580545840383306E+06,
2460896.500000000, A.D. 2025-Aug-09 00:00:00.0000, -3.091226896311250E+08, 2.518431424335633E+08, -5.207839772129014E+06,
2460903.500000000, A.D. 2025-Aug-16 00:00:00.0000, -3.160052364075249E+08, 2.429804097475259E+08, -5.831144850182280E+06,
2460910.500000000, A.D. 2025-Aug-23 00:00:00.0000, -3.226456412684756E+08, 2.339315819232216E+08, -6.449980713765949E+06,
2460917.500000000, A.D. 2025-Aug-30 00:00:00.0000, -3.290386603315578E+08, 2.247034714003511E+08, -7.063870357835352E+06,
2460924.500000000, A.D. 2025-Sep-06 00:00:00.0000, -3.351792527894254E+08, 2.153030533334423E+08, -7.672340510022357E+06,
2460931.500000000, A.D. 2025-Sep-13 00:00:00.0000, -3.410625886275748E+08, 2.057374596702722E+08, -8.274921857571781E+06,
2460938.500000000, A.D. 2025-Sep-20 00:00:00.0000, -3.466840552090942E+08, 1.960139704521470E+08, -8.871149557732396E+06,
2460945.500000000, A.D. 2025-Sep-27 00:00:00.0000, -3.520392616533120E+08, 1.861400054581426E+08, -9.460563872734442E+06,
2460952.500000000, A.D. 2025-Oct-04 00:00:00.0000, -3.571240430168462E+08, 1.761231167448224E+08, -1.004271069943865E+07,
2460959.500000000, A.D. 2025-Oct-11 00:00:00.0000, -3.619344646428753E+08, 1.659709811557072E+08, -1.061714203595354E+07,
2460966.500000000, A.D. 2025-Oct-18 00:00:00.0000, -3.664668263833429E+08, 1.556913925432416E+08, -1.118341643264767E+07,
2460973.500000000, A.D. 2025-Oct-25 00:00:00.0000, -3.707176665417601E+08, 1.452922537290998E+08, -1.174109943802847E+07,
2460980.500000000, A.D. 2025-Nov-01 00:00:00.0000, -3.746837654861411E+08, 1.347815682312193E+08, -1.228976404034973E+07,
2460987.500000000, A.D. 2025-Nov-08 00:00:00.0000, -3.783621488905399E+08, 1.241674317386260E+08, -1.282899110953553E+07,
2460994.500000000, A.D. 2025-Nov-15 00:00:00.0000, -3.817500904546762E+08, 1.134580232898672E+08, -1.335836985722622E+07,
2461001.500000000, A.D. 2025-Nov-22 00:00:00.0000, -3.848451136982923E+08, 1.026615963925012E+08, -1.387749833378994E+07,
2461008.500000000, A.D. 2025-Nov-29 00:00:00.0000, -3.876449929822539E+08, 9.178647123762381E+07, -1.438598385542604E+07,
2461015.500000000, A.D. 2025-Dec-06 00:00:00.0000, -3.901477560327684E+08, 8.084102789212073E+07, -1.488344316350709E+07,
2461022.500000000, A.D. 2025-Dec-13 00:00:00.0000, -3.923516875356419E+08, 6.983369711772130E+07, -1.536950263134621E+07,
2461029.500000000, A.D. 2025-Dec-20 00:00:00.0000, -3.942553303050434E+08, 5.877294986018152E+07, -1.584379875444964E+07,
2461036.500000000, A.D. 2025-Dec-27 00:00:00.0000, -3.958574850956093E+08, 4.766728801644696E+07, -1.630597861266252E+07,
2461043.500000000, A.D. 2026-Jan-03 00:00:00.0000, -3.971572105173357E+08, 3.652523587860983E+07, -1.675570022004156E+07,
2461050.500000000, A.D. 2026-Jan-10 00:00:00.0000, -3.981538229477049E+08, 2.535533159240818E+07, -1.719263282784293E+07,
2461057.500000000, A.D. 2026-Jan-17 00:00:00.0000, -3.988468962123024E+08, 1.416611855659448E+07, -1.761645720903081E+07,
2461064.500000000, A.D. 2026-Jan-24 00:00:00.0000, -3.992362609595502E+08, 2.966136803064439E+06, -1.802686592902383E+07,
2461071.500000000, A.D. 2026-Jan-31 00:00:00.0000, -3.993220037105627E+08, -8.236085633192590E+06, -1.842356360491900E+07,
2461078.500000000, A.D. 2026-Feb-07 00:00:00.0000, -3.991044655282091E+08, -1.943204139564923E+07, -1.880626716310208E+07,
2461085.500000000, A.D. 2026-Feb-14 00:00:00.0000, -3.985842400588534E+08, -3.061325253894528E+07, -1.917470611936188E+07,
2461092.500000000, A.D. 2026-Feb-21 00:00:00.0000, -3.977621705662668E+08, -4.177127872051923E+07, -1.952862286957633E+07,
2461099.500000000, A.D. 2026-Feb-28 00:00:00.0000, -3.966393470499635E+08, -5.289772368350384E+07, -1.986777279694896E+07,
2461106.500000000, A.D. 2026-Mar-07 00:00:00.0000, -3.952171055159415E+08, -6.398424196830355E+07, -2.019192416644024E+07,
2461113.500000000, A.D. 2026-Mar-14 00:00:00.0000, -3.934970266365994E+08, -7.502254817281328E+07, -2.050085825200482E+07,
2461120.500000000, A.D. 2026-Mar-21 00:00:00.0000, -3.914809320276441E+08, -8.600442584856135E+07, -2.079436962313833E+07,
2461127.500000000, A.D. 2026-Mar-28 00:00:00.0000, -3.891708801584054E+08, -9.692173499066089E+07, -2.107226632167327E+07,
2461134.500000000, A.D. 2026-Apr-04 00:00:00.0000, -3.865691625074142E+08, -1.077664190770543E+08, -2.133436995207591E+07,
2461141.500000000, A.D. 2026-Apr-11 00:00:00.0000, -3.836782997002451E+08, -1.185305120079954E+08, -2.158051573987871E+07,
2461148.500000000, A.D. 2026-Apr-18 00:00:00.0000, -3.805010374817836E+08, -1.292061449435462E+08, -2.181055257339107E+07,
2461155.500000000, A.D. 2026-Apr-25 00:00:00.0000, -3.770403424882028E+08, -1.397855530165101E+08, -2.202434303157277E+07,
2461162.500000000, A.D. 2026-May-02 00:00:00.0000, -3.732993977996683E+08, -1.502610819440145E+08, -2.222176340334364E+07,
2461169.500000000, A.D. 2026-May-09 00:00:00.0000, -3.692815981620591E+08, -1.606251945984676E+08, -2.240270371545314E+07,
2461176.500000000, A.D. 2026-May-16 00:00:00.0000, -3.649905445135139E+08, -1.708704773942910E+08, -2.256706779272108E+07,
2461183.500000000, A.D. 2026-May-23 00:00:00.0000, -3.604300377776352E+08, -1.809896454627478E+08, -2.271477327234246E+07,
2461190.500000000, A.D. 2026-May-30 00:00:00.0000, -3.556040740147138E+08, -1.909755462906596E+08, -2.284575135607411E+07,
2461197.500000000, A.D. 2026-Jun-06 00:00:00.0000, -3.505168412620642E+08, -2.008211650939659E+08, -2.295994653965917E+07,
2461204.500000000, A.D. 2026-Jun-13 00:00:00.0000, -3.451727144134969E+08, -2.105196317252926E+08, -2.305731664058505E+07,
2461211.500000000, A.D. 2026-Jun-20 00:00:00.0000, -3.395762486539122E+08, -2.200642261857234E+08, -2.313783283977175E+07,
2461218.500000000, A.D. 2026-Jun-27 00:00:00.0000, -3.337321731594806E+08, -2.294483830763206E+08, -2.320147960950913E+07,
2461225.500000000, A.D. 2026-Jul-04 00:00:00.0000, -3.276453850742393E+08, -2.386656957611810E+08, -2.324825459132054E+07,
2461232.500000000, A.D. 2026-Jul-11 00:00:00.0000, -3.213209435195832E+08, -2.477099203721425E+08, -2.327816845825253E+07,
2461239.500000000, A.D. 2026-Jul-18 00:00:00.0000, -3.147640635536943E+08, -2.565749796287467E+08, -2.329124476836942E+07,
2461246.500000000, A.D. 2026-Jul-25 00:00:00.0000, -3.079801100656758E+08, -2.652549664721749E+08, -2.328751981200133E+07,
2461253.500000000, A.D. 2026-Aug-01 00:00:00.0000, -3.009745915666350E+08, -2.737441475653816E+08, -2.326704246210013E+07,
2461260.500000000, A.D. 2026-Aug-08 00:00:00.0000, -2.937531536755347E+08, -2.820369667006460E+08, -2.322987405172130E+07,
2461267.500000000, A.D. 2026-Aug-15 00:00:00.0000, -2.863215718988259E+08, -2.901280476686130E+08, -2.317608828116234E+07,
2461274.500000000, A.D. 2026-Aug-22 00:00:00.0000, -2.786857444779732E+08, -2.980121953701753E+08, -2.310577098596901E+07,
2461281.500000000, A.D. 2026-Aug-29 00:00:00.0000, -2.708516876045507E+08, -3.056843965460370E+08, -2.301901966856593E+07,
2461288.500000000, A.D. 2026-Sep-05 00:00:00.0000, -2.628255308790624E+08, -3.131398229961753E+08, -2.291594322422338E+07,
$$EOE